0 FENGYUN 1C DEB
1 37686U 99025ELB 13282.78213367  .00000008  00000-0  10258-4 0   874
2 37686 099.0988 020.4147 0404554 225.2712 131.5272 13.32375741206900
0 FENGYUN 1C DEB
1 37686U 99025ELB 13294.04650058  .00000506  00000-0  71072-3 0   871
2 37686 099.0991 030.4332 0404059 197.5559 161.3642 13.32379208208402
